NORAD_CAT_ID,OBJECT_NAME,OBJECT_TYPE,EPOCH,MEAN_MOTION,ECCENTRICITY,INCLINATION,RA_OF_ASC_NODE,ARG_OF_PERICENTER,MEAN_ANOMALY,BSTAR,MEAN_MOTION_DOT,MEAN_MOTION_DDOT,TLE_LINE0,TLE_LINE1,TLE_LINE2,SEMIMAJOR_AXIS,PERIOD,APOGEE,PERIGEE,DECAYED
52309.0,STARLINK-3756,PAYLOAD,2022-07-25 14:00:01,15.22783346,0.0001489,53.2174,269.1044,47.4174,300.5037,-0.049052,-0.01063154,0.0,0 STARLINK-3756,1 52309U 22041BA  22206.58334491 -.01063154  00000-0 -49052-1 0  9990,2 52309  53.2174 269.1044 0001489  47.4174 300.5037 15.22783346  1301,6875.587,94.564,498.475,496.42800000000005,0.0
52309.0,STARLINK-3756,PAYLOAD,2022-07-25 22:00:00,15.22025013,0.0001582,53.2175,267.5726,40.0131,335.7965,-0.05031,-0.01065886,0.0,0 STARLINK-3756,1 52309U 22041BA  22206.91667824 -.01065886  00000-0 -50310-1 0  9999,2 52309  53.2175 267.5726 0001582  40.0131 335.7965 15.22025013  1307,6877.87,94.611,500.823,498.647,0.0
52309.0,STARLINK-3756,PAYLOAD,2022-07-26 06:00:00,15.21265354,0.0001624,53.2175,266.0444,41.3065,1.4778,-0.051398,-0.01064832,0.0,0 STARLINK-3756,1 52309U 22041BA  22207.25001157 -.01064832  00000-0 -51398-1 0  9995,2 52309  53.2175 266.0444 0001624  41.3065   1.4778 15.21265354 16213,6880.16,94.658,503.142,500.907,0.0
52309.0,STARLINK-3756,PAYLOAD,2022-07-26 14:00:01,15.20503149,0.0001626999999999,53.2174,264.5194,43.6724,25.1743,-0.0523429999999999,-0.010607,0.0,0 STARLINK-3756,1 52309U 22041BA  22207.58334491 -.01060700  00000-0 -52343-1 0  9992,2 52309  53.2174 264.5194 0001627  43.6724  25.1743 15.20503149  1302,6882.459,94.705,505.444,503.204,0.0
52309.0,STARLINK-3756,PAYLOAD,2022-07-26 22:00:00,15.19744783,0.0001582,53.2175,262.993,46.3194,47.6776,-0.0536289999999999,-0.01062662,0.0,0 STARLINK-3756,1 52309U 22041BA  22207.91667824 -.01062662  00000-0 -53629-1 0  9995,2 52309  53.2175 262.9930 0001582  46.3194  47.6776 15.19744783  1308,6884.748000000001,94.753,507.702,505.524,0.0
52309.0,STARLINK-3756,PAYLOAD,2022-07-27 14:00:01,15.18222404,0.0001745,53.2174,259.9504,45.5833,95.975,-0.055719,-0.01056727,0.0,0 STARLINK-3756,1 52309U 22041BA  22208.58334491 -.01056727  00000-0 -55719-1 0  9997,2 52309  53.2174 259.9504 0001745  45.5833  95.9750 15.18222404  1300,6889.35,94.848,512.4169999999998,510.013,0.0
52309.0,STARLINK-3756,PAYLOAD,2022-07-27 22:00:00,15.17465359,0.0001661,53.2175,258.4292,49.3163,114.6537,-0.057183,-0.01074041,0.0,0 STARLINK-3756,1 52309U 22041BA  22208.91667824 -.01074041  00000-0 -57183-1 0  9999,2 52309  53.2175 258.4292 0001661  49.3163 114.6537 15.17465359  1303,6891.641,94.895,514.651,512.361,0.0
52309.0,STARLINK-3756,PAYLOAD,2022-07-28 06:00:00,15.16706374,0.0001885999999999,53.2176,256.9119,42.506,142.9625,-0.058497,-0.01074933,0.0,0 STARLINK-3756,1 52309U 22041BA  22209.25001157 -.01074933  00000-0 -58497-1 0  9997,2 52309  53.2176 256.9119 0001886  42.5060 142.9625 15.16706374 16510,6893.94,94.943,517.105,514.505,0.0
52309.0,STARLINK-3756,PAYLOAD,2022-07-28 14:00:01,15.15943302,0.0001799,53.2174,255.3974,45.1363,160.9189,-0.059398,-0.01068352,0.0,0 STARLINK-3756,1 52309U 22041BA  22209.58334491 -.01068352  00000-0 -59398-1 0  9992,2 52309  53.2174 255.3974 0001799  45.1363 160.9189 15.15943302  1307,6896.253000000002,94.99,519.359,516.878,0.0
52309.0,STARLINK-3756,PAYLOAD,2022-07-28 22:00:00,15.15186353,0.0001797,53.2175,253.8814,42.6361,183.0929,-0.060969,-0.01072809,0.0,0 STARLINK-3756,1 52309U 22041BA  22209.91667824 -.01072809  00000-0 -60969-1 0  9996,2 52309  53.2175 253.8814 0001797  42.6361 183.0929 15.15186353  1305,6898.55,95.038,521.655,519.175,0.0
52309.0,STARLINK-3756,PAYLOAD,2022-07-29 06:00:00,15.14427421,0.0001808,53.2176,252.3697,43.3974,201.0918,-0.062359,-0.01073764,0.0,0 STARLINK-3756,1 52309U 22041BA  22210.25001157 -.01073764  00000-0 -62359-1 0  9992,2 52309  53.2176 252.3697 0001808  43.3974 201.0918 15.14427421 16667,6900.854,95.085,523.967,521.472,0.0
52309.0,STARLINK-3756,PAYLOAD,2022-07-29 14:00:01,15.13665781,0.0001623,53.2173,250.8602,49.6457,212.6917,-0.063446,-0.01069467,0.0,0 STARLINK-3756,1 52309U 22041BA  22210.58334491 -.01069467  00000-0 -63446-1 0  9991,2 52309  53.2173 250.8602 0001623  49.6457 212.6917 15.13665781  1307,6903.169,95.133,526.154,523.914,0.0
52309.0,STARLINK-3756,PAYLOAD,2022-07-29 22:00:00,15.1290723,0.0001757,53.2175,249.3496,39.9345,239.3395,-0.064962,-0.01071694,0.0,0 STARLINK-3756,1 52309U 22041BA  22210.91667824 -.01071694  00000-0 -64962-1 0  9996,2 52309  53.2175 249.3496 0001757  39.9345 239.3395 15.12907230  1302,6905.476,95.181,528.555,526.128,0.0
52309.0,STARLINK-3756,PAYLOAD,2022-07-30 06:00:00,15.12148972,0.0001823,53.2175,247.8432,38.0596,257.2363,-0.066483,-0.01073541,0.0,0 STARLINK-3756,1 52309U 22041BA  22211.25001157 -.01073541  00000-0 -66483-1 0  9998,2 52309  53.2175 247.8432 0001823  38.0596 257.2363 15.12148972 16824,6907.785,95.229,530.909,528.39,0.0
52309.0,STARLINK-3756,PAYLOAD,2022-07-30 14:00:01,15.11388525,0.0001453,53.2172,246.3388,53.7243,256.6815,-0.067762,-0.01071276,0.0,0 STARLINK-3756,1 52309U 22041BA  22211.58334491 -.01071276  00000-0 -67762-1 0  9998,2 52309  53.2172 246.3388 0001453  53.7243 256.6815 15.11388525  1308,6910.102,95.277,532.971,530.962,0.0
52309.0,STARLINK-3756,PAYLOAD,2022-07-30 22:00:00,15.10628041,0.0001602,53.2174,244.8336,40.4431,284.1621,-0.06916,-0.01070542,0.0,0 STARLINK-3756,1 52309U 22041BA  22211.91667824 -.01070542  00000-0 -69160-1 0  9993,2 52309  53.2174 244.8336 0001602  40.4431 284.1621 15.10628041  1304,6912.42,95.325,535.393,533.178,0.0
52309.0,STARLINK-3756,PAYLOAD,2022-07-31 06:00:02,15.09807118,0.0001652,53.2176,243.3331,36.3077,301.6566,-0.060311,-0.00912365,0.0,0 STARLINK-3756,1 52309U 22041BA  22212.25002315 -.00912365  00000-0 -60311-1 0  9995,2 52309  53.2176 243.3331 0001652  36.3077 301.6566 15.09807118 16974,6914.926,95.376,537.933,535.649,0.0
52309.0,STARLINK-3756,PAYLOAD,2022-07-31 14:00:01,15.09058934,0.0001431999999999,53.2172,241.8352,47.2306,303.0389,-0.020624,-0.00316271,0.0,0 STARLINK-3756,1 52309U 22041BA  22212.58334491 -.00316271  00000-0 -20624-1 0  9991,2 52309  53.2172 241.8352 0001432  47.2306 303.0389 15.09058934  1302,6917.2109999999975,95.424,540.067,538.086,0.0
52309.0,STARLINK-3756,PAYLOAD,2022-07-31 22:00:00,15.08834308,0.0001717,53.2174,240.3367,45.1367,316.85,0.00028204,4.203e-05,0.0,0 STARLINK-3756,1 52309U 22041BA  22212.91667824  .00004203  00000-0  28204-3 0  9998,2 52309  53.2174 240.3367 0001717  45.1367 316.8500 15.08834308 17078,6917.898,95.438,540.951,538.575,0.0
52309.0,STARLINK-3756,PAYLOAD,2022-08-01 06:00:00,15.08873404,0.0001955,53.2126,238.8507,51.6281,321.7752,-0.0020712,-0.00033131,0.0,0 STARLINK-3756,1 52309U 22041BA  22213.25001157 -.00033131  00000-0 -20712-2 0  9996,2 52309  53.2126 238.8507 0001955  51.6281 321.7752 15.08873404 17124,6917.778,95.435,540.996,538.2909999999998,0.0
52309.0,STARLINK-3756,PAYLOAD,2022-08-01 14:00:01,15.08854295,0.0002041,53.2121,237.3547,47.3553,337.6749,0.001099,0.00017253,0.0,0 STARLINK-3756,1 52309U 22041BA  22213.58334491  .00017253  00000-0  10990-2 0  9994,2 52309  53.2121 237.3547 0002041  47.3553 337.6749 15.08854295  1300,6917.837,95.437,541.114,538.29,0.0
52309.0,STARLINK-3756,PAYLOAD,2022-08-01 22:00:00,15.08836978,0.0001884,53.2122,235.8564,53.6745,342.9821,0.0026228,0.00041698,0.0,0 STARLINK-3756,1 52309U 22041BA  22213.91667824  .00041698  00000-0  26228-2 0  9991,2 52309  53.2122 235.8564 0001884  53.6745 342.9821 15.08836978  1308,6917.89,95.438,541.058,538.451,0.0
52309.0,STARLINK-3756,PAYLOAD,2022-08-02 14:00:01,15.08857762,0.0002041999999999,53.2121,232.8648,46.4149,13.4735,-0.0018444,-0.00029537,0.0,0 STARLINK-3756,1 52309U 22041BA  22214.58334491 -.00029537  00000-0 -18444-2 0  9997,2 52309  53.2121 232.8648 0002042  46.4149  13.4735 15.08857762  1300,6917.826,95.436,541.104,538.278,0.0
52309.0,STARLINK-3756,PAYLOAD,2022-08-03 14:00:01,15.08837837,0.0002106,53.2124,228.3751,46.0283,48.6433,0.00025807,3.821e-05,0.0,0 STARLINK-3756,1 52309U 22041BA  22215.58334491  .00003821  00000-0  25807-3 0  9996,2 52309  53.2124 228.3751 0002106  46.0283  48.6433 15.08837837 17475,6917.887,95.438,541.2090000000002,538.295,0.0
52309.0,STARLINK-3756,PAYLOAD,2022-08-03 22:00:01,15.08817974,0.0001966,53.2126,226.8768,51.7466,54.5893,0.0025618,0.00040695,0.0,0 STARLINK-3756,1 52309U 22041BA  22215.91668981  .00040695  00000-0  25618-2 0  9996,2 52309  53.2126 226.8768 0001966  51.7466  54.5893 15.08817974  1308,6917.948,95.439,541.173,538.453,0.0
52309.0,STARLINK-3756,PAYLOAD,2022-08-04 14:00:01,15.08846997,0.000221,53.2128,223.8855,46.9959,82.459,-0.00023173,-3.975e-05,0.0,0 STARLINK-3756,1 52309U 22041BA  22216.58334491 -.00003975  00000-0 -23173-3 0  9993,2 52309  53.2128 223.8855 0002210  46.9959  82.4590 15.08846997  1301,6917.859,95.437,541.253,538.195,0.0
52309.0,STARLINK-3756,PAYLOAD,2022-08-04 22:00:00,15.08826119,0.0002070999999999,53.2131,222.3874,52.4771,88.5863,0.0023811999999999,0.00037798,0.0,0 STARLINK-3756,1 52309U 22041BA  22216.91667824  .00037798  00000-0  23812-2 0  9996,2 52309  53.2131 222.3874 0002071  52.4771  88.5863 15.08826119  1303,6917.9230000000025,95.438,541.221,538.355,0.0
52309.0,STARLINK-3756,PAYLOAD,2022-08-05 14:00:01,15.08858177,0.0002282,53.2132,219.3958,48.3715,115.9531,-0.00075714,-0.00012324,0.0,0 STARLINK-3756,1 52309U 22041BA  22217.58335648 -.00012324  00000-0 -75714-3 0  9995,2 52309  53.2132 219.3958 0002282  48.3715 115.9531 15.08858177 17773,6917.825,95.436,541.268,538.111,0.0
52309.0,STARLINK-3756,PAYLOAD,2022-08-05 22:00:00,15.0884649,0.0002117,53.2134,217.8979,53.4058,122.4718,0.00018275,2.622e-05,0.0,0 STARLINK-3756,1 52309U 22041BA  22217.91667824  .00002622  00000-0  18275-3 0  9993,2 52309  53.2134 217.8979 0002117  53.4058 122.4718 15.08846490  1302,6917.861,95.437,541.19,538.261,0.0
